{"type": "FeatureCollection", "features": [ {"type": "Feature", "properties": {"norad_id": 33825, "name": "COSMOS 2251 DEB", "group": "cosmos-2251-debris", "lat": 32.39398818413562, "lon": -161.73863820292925, "alt_km": 711.0143225950487, "timestamp": "2025-12-12T05:47:29.164074+00:00", "meta": {"OBJECT_NAME": "COSMOS 2251 DEB", "OBJECT_ID": "1993-036BS", "EPOCH": "2025-12-11T11:26:51.179136", "MEAN_MOTION": 14.6974725, "ECCENTRICITY": 0.00844788, "INCLINATION": 73.9855, "RA_OF_ASC_NODE": 30.2463, "ARG_OF_PERICENTER": 357.602, "MEAN_ANOMALY": 65.4684, "EPHEMERIS_TYPE": 0, "CLASSIFICATION_TYPE": "U", "NORAD_CAT_ID": 33825, "ELEMENT_SET_NO": 999, "REV_AT_EPOCH": 88861, "BSTAR": 0.0013178031, "MEAN_MOTION_DOT": 8.277e-05, "MEAN_MOTION_DDOT": 0}, "tle": {"line1": "1 33825U 93036BS  25345.47698124  .00008277  00000+0  13178-2 0  9997", "line2": "2 33825  73.9855  30.2463 0084478 357.6020  65.4684 14.69747250888611"}}, "geometry": {"type": "Point", "coordinates": [-161.73863820292925, 32.39398818413562]}}, {"type": "Feature", "properties": {"norad_id": 33826, "name": "COSMOS 2251 DEB", "group": "cosmos-2251-debris", "lat": 62.44382994489026, "lon": 84.01033581251474, "alt_km": 661.3891434652251, "timestamp": "2025-12-12T05:47:29.164085+00:00", "meta": {"OBJECT_NAME": "COSMOS 2251 DEB", "OBJECT_ID": "1993-036BT", "EPOCH": "2025-12-11T15:17:03.227424", "MEAN_MOTION": 14.51703155, "ECCENTRICITY": 0.00832654, "INCLINATION": 74.065, "RA_OF_ASC_NODE": 51.9489, "ARG_OF_PERICENTER": 96.6786, "MEAN_ANOMALY": 53.2943, "EPHEMERIS_TYPE": 0, "CLASSIFICATION_TYPE": "U", "NORAD_CAT_ID": 33826, "ELEMENT_SET_NO": 999, "REV_AT_EPOCH": 87753, "BSTAR": 0.0016242041, "MEAN_MOTION_DOT": 6.8e-05, "MEAN_MOTION_DDOT": 0}, "tle": {"line1": "1 33826U 93036BT  25345.63684291  .00006800  00000+0  16242-2 0  9991", "line2": "2 33826  74.0650  51.9489 0083265  96.6786  53.2943 14.51703155877536"}}, "geometry": {"type": "Point", "coordinates": [84.01033581251474, 62.44382994489026]}}, {"type": "Feature", "properties": {"norad_id": 33828, "name": "COSMOS 2251 DEB", "group": "cosmos-2251-debris", "lat": -21.509830792343546, "lon": -127.45553061692333, "alt_km": 730.2668237142543, "timestamp": "2025-12-12T05:47:29.164096+00:00", "meta": {"OBJECT_NAME": "COSMOS 2251 DEB", "OBJECT_ID": "1993-036BV", "EPOCH": "2025-12-11T16:43:54.678432", "MEAN_MOTION": 14.44327881, "ECCENTRICITY": 0.00294472, "INCLINATION": 74.0467, "RA_OF_ASC_NODE": 240.0289, "ARG_OF_PERICENTER": 313.1158, "MEAN_ANOMALY": 76.2285, "EPHEMERIS_TYPE": 0, "CLASSIFICATION_TYPE": "U", "NORAD_CAT_ID": 33828, "ELEMENT_SET_NO": 999, "REV_AT_EPOCH": 88298, "BSTAR": 0.00074155471, "MEAN_MOTION_DOT": 2.539e-05, "MEAN_MOTION_DDOT": 0}, "tle": {"line1": "1 33828U 93036BV  25345.69716063  .00002539  00000+0  74155-3 0  9995", "line2": "2 33828  74.0467 240.0289 0029447 313.1158  76.2285 14.44327881882984"}}, "geometry": {"type": "Point", "coordinates": [-127.45553061692333, -21.509830792343546]}}, {"type": "Feature", "properties": {"norad_id": 33830, "name": "COSMOS 2251 DEB", "group": "cosmos-2251-debris", "lat": 24.577719085136422, "lon": 43.818775777814615, "alt_km": 666.5441002320749, "timestamp": "2025-12-12T05:47:29.164106+00:00", "meta": {"OBJECT_NAME": "COSMOS 2251 DEB", "OBJECT_ID": "1993-036BX", "EPOCH": "2025-12-11T16:13:47.127360", "MEAN_MOTION": 14.76877233, "ECCENTRICITY": 0.00423387, "INCLINATION": 74.0321, "RA_OF_ASC_NODE": 232.4511, "ARG_OF_PERICENTER": 352.7136, "MEAN_ANOMALY": 38.3092, "EPHEMERIS_TYPE": 0, "CLASSIFICATION_TYPE": "U", "NORAD_CAT_ID": 33830, "ELEMENT_SET_NO": 999, "REV_AT_EPOCH": 89456, "BSTAR": 0.0013669825, "MEAN_MOTION_DOT": 9.731e-05, "MEAN_MOTION_DDOT": 0}, "tle": {"line1": "1 33830U 93036BX  25345.67623990  .00009731  00000+0  13670-2 0  9997", "line2": "2 33830  74.0321 232.4511 0042338 352.7136  38.3092 14.76877233894566"}}, "geometry": {"type": "Point", "coordinates": [43.818775777814615, 24.577719085136422]}}, {"type": "Feature", "properties": {"norad_id": 33832, "name": "COSMOS 2251 DEB", "group": "cosmos-2251-debris", "lat": -50.60882199841335, "lon": 51.30295319438451, "alt_km": 680.2248103508364, "timestamp": "2025-12-12T05:47:29.164116+00:00", "meta": {"OBJECT_NAME": "COSMOS 2251 DEB", "OBJECT_ID": "1993-036BZ", "EPOCH": "2025-12-11T09:47:30.387840", "MEAN_MOTION": 14.60621678, "ECCENTRICITY": 0.00249613, "INCLINATION": 74.0538, "RA_OF_ASC_NODE": 212.5155, "ARG_OF_PERICENTER": 243.8481, "MEAN_ANOMALY": 289.5989, "EPHEMERIS_TYPE": 0, "CLASSIFICATION_TYPE": "U", "NORAD_CAT_ID": 33832, "ELEMENT_SET_NO": 999, "REV_AT_EPOCH": 88405, "BSTAR": 0.0024294757, "MEAN_MOTION_DOT": 0.00011861, "MEAN_MOTION_DDOT": 0}, "tle": {"line1": "1 33832U 93036BZ  25345.40799060  .00011861  00000+0  24295-2 0  9994", "line2": "2 33832  74.0538 212.5155 0024961 243.8481 289.5989 14.60621678884057"}}, "geometry": {"type": "Point", "coordinates": [51.30295319438451, -50.60882199841335]}}, {"type": "Feature", "properties": {"norad_id": 33835, "name": "COSMOS 2251 DEB", "group": "cosmos-2251-debris", "lat": 60.76567865133991, "lon": 132.77748484307523, "alt_km": 679.8101990221476, "timestamp": "2025-12-12T05:47:29.164127+00:00", "meta": {"OBJECT_NAME": "COSMOS 2251 DEB", "OBJECT_ID": "1993-036CC", "EPOCH": "2025-12-11T14:48:20.209248", "MEAN_MOTION": 14.62231732, "ECCENTRICITY": 0.00548182, "INCLINATION": 74.0571, "RA_OF_ASC_NODE": 103.2567, "ARG_OF_PERICENTER": 157.0707, "MEAN_ANOMALY": 223.2071, "EPHEMERIS_TYPE": 0, "CLASSIFICATION_TYPE": "U", "NORAD_CAT_ID": 33835, "ELEMENT_SET_NO": 999, "REV_AT_EPOCH": 88773, "BSTAR": 0.0018288179, "MEAN_MOTION_DOT": 9.4e-05, "MEAN_MOTION_DDOT": 0}, "tle": {"line1": "1 33835U 93036CC  25345.61690057  .00009400  00000+0  18288-2 0  9997", "line2": "2 33835  74.0571 103.2567 0054818 157.0707 223.2071 14.62231732887736"}}, "geometry": {"type": "Point", "coordinates": [132.77748484307523, 60.76567865133991]}}, {"type": "Feature", "properties": {"norad_id": 33836, "name": "COSMOS 2251 DEB", "group": "cosmos-2251-debris", "lat": 54.732669813640356, "lon": -76.12262050768844, "alt_km": 616.018448105815, "timestamp": "2025-12-12T05:47:29.164138+00:00", "meta": {"OBJECT_NAME": "COSMOS 2251 DEB", "OBJECT_ID": "1993-036CD", "EPOCH": "2025-12-11T21:45:06.383232", "MEAN_MOTION": 14.79593513, "ECCENTRICITY": 0.00225213, "INCLINATION": 73.9971, "RA_OF_ASC_NODE": 260.5952, "ARG_OF_PERICENTER": 114.2059, "MEAN_ANOMALY": 320.6361, "EPHEMERIS_TYPE": 0, "CLASSIFICATION_TYPE": "U", "NORAD_CAT_ID": 33836, "ELEMENT_SET_NO": 999, "REV_AT_EPOCH": 64076, "BSTAR": 0.0019365326, "MEAN_MOTION_DOT": 0.00014571, "MEAN_MOTION_DDOT": 0}, "tle": {"line1": "1 33836U 93036CD  25345.90632388  .00014571  00000+0  19365-2 0  9995", "line2": "2 33836  73.9971 260.5952 0022521 114.2059 320.6361 14.79593513640765"}}, "geometry": {"type": "Point", "coordinates": [-76.12262050768844, 54.732669813640356]}}, {"type": "Feature", "properties": {"norad_id": 33837, "name": "COSMOS 2251 DEB", "group": "cosmos-2251-debris", "lat": 73.98877521247749, "lon": 143.97483285348773, "alt_km": 741.094665982032, "timestamp": "2025-12-12T05:47:29.164148+00:00", "meta": {"OBJECT_NAME": "COSMOS 2251 DEB", "OBJECT_ID": "1993-036CE", "EPOCH": "2025-12-11T21:06:16.714368", "MEAN_MOTION": 14.50699393, "ECCENTRICITY": 0.00358688, "INCLINATION": 74.0139, "RA_OF_ASC_NODE": 57.2177, "ARG_OF_PERICENTER": 279.0966, "MEAN_ANOMALY": 80.6136, "EPHEMERIS_TYPE": 0, "CLASSIFICATION_TYPE": "U", "NORAD_CAT_ID": 33837, "ELEMENT_SET_NO": 999, "REV_AT_EPOCH": 88783, "BSTAR": 0.00045243559, "MEAN_MOTION_DOT": 1.764e-05, "MEAN_MOTION_DDOT": 0}, "tle": {"line1": "1 33837U 93036CE  25345.87936012  .00001764  00000+0  45244-3 0  9999", "line2": "2 33837  74.0139  57.2177 0035868 279.0966  80.6136 14.50699393887835"}}, "geometry": {"type": "Point", "coordinates": [143.97483285348773, 73.98877521247749]}}, {"type": "Feature", "properties": {"norad_id": 33838, "name": "COSMOS 2251 DEB", "group": "cosmos-2251-debris", "lat": -32.44991206721703, "lon": 140.26043883265825, "alt_km": 725.1152698934411, "timestamp": "2025-12-12T05:47:29.164158+00:00", "meta": {"OBJECT_NAME": "COSMOS 2251 DEB", "OBJECT_ID": "1993-036CF", "EPOCH": "2025-12-11T22:12:02.321568", "MEAN_MOTION": 14.48359469, "ECCENTRICITY": 0.00274628, "INCLINATION": 74.0364, "RA_OF_ASC_NODE": 151.3392, "ARG_OF_PERICENTER": 273.3203, "MEAN_ANOMALY": 204.1445, "EPHEMERIS_TYPE": 0, "CLASSIFICATION_TYPE": "U", "NORAD_CAT_ID": 33838, "ELEMENT_SET_NO": 999, "REV_AT_EPOCH": 88557, "BSTAR": 0.00067537443, "MEAN_MOTION_DOT": 2.512e-05, "MEAN_MOTION_DDOT": 0}, "tle": {"line1": "1 33838U 93036CF  25345.92502687  .00002512  00000+0  67537-3 0  9994", "line2": "2 33838  74.0364 151.3392 0027462 273.3203 204.1445 14.48359469885572"}}, "geometry": {"type": "Point", "coordinates": [140.26043883265825, -32.44991206721703]}}, {"type": "Feature", "properties": {"norad_id": 33839, "name": "COSMOS 2251 DEB", "group": "cosmos-2251-debris", "lat": -40.73112832446386, "lon": 41.70491809866064, "alt_km": 691.9258026348925, "timestamp": "2025-12-12T05:47:29.164168+00:00", "meta": {"OBJECT_NAME": "COSMOS 2251 DEB", "OBJECT_ID": "1993-036CG", "EPOCH": "2025-12-12T00:25:22.389600", "MEAN_MOTION": 14.64417762, "ECCENTRICITY": 0.00850937, "INCLINATION": 74.039, "RA_OF_ASC_NODE": 207.8676, "ARG_OF_PERICENTER": 320.1049, "MEAN_ANOMALY": 164.7317, "EPHEMERIS_TYPE": 0, "CLASSIFICATION_TYPE": "U", "NORAD_CAT_ID": 33839, "ELEMENT_SET_NO": 999, "REV_AT_EPOCH": 89569, "BSTAR": 0.00037946037, "MEAN_MOTION_DOT": 2.083e-05, "MEAN_MOTION_DDOT": 0}, "tle": {"line1": "1 33839U 93036CG  25346.01762025  .00002083  00000+0  37946-3 0  9994", "line2": "2 33839  74.0390 207.8676 0085093 320.1049 164.7317 14.64417762895699"}}, "geometry": {"type": "Point", "coordinates": [41.70491809866064, -40.73112832446386]}}]}